0 ARABSAT 1B R/B(PAM-D)
1 15836U 85048G   13282.67179552  .00000124  00000-0  51138-3 0  4416
2 15836 027.0420 358.8349 7134166 314.6032 037.2484 02.38680349242646
0 ARABSAT 1B R/B(PAM-D)
1 15836U 85048G   13287.24957758  .00000206  00000-0  58544-3 0  4437
2 15836 027.0444 357.1159 7133696 317.4648 010.6933 02.38682822242758
0 ARABSAT 1B R/B(PAM-D)
1 15836U 85048G   13290.17967008  .00000144  00000-0  44029-3 0  4447
2 15836 027.0459 356.0171 7133427 319.2931 008.3831 02.38685574242829
0 ARABSAT 1B R/B(PAM-D)
1 15836U 85048G   13292.28259006  .00000105  00000-0  44805-3 0  4453
2 15836 027.0467 355.2291 7133237 320.6038 015.3414 02.38686621242879
0 ARABSAT 1B R/B(PAM-D)
1 15836U 85048G   13295.20806344  .00000099  00000-0  54279-3 0  4460
2 15836 027.0478 354.1328 7133026 322.4269 009.1078 02.38687717242944
